HORYU-4                 
1 41340U 16012D   21259.53341592  .00000859  00000-0  57323-4 0  9999
2 41340  31.0051 306.2715 0013748 357.5815   2.4753 15.02013327306492
E-ST@R-II               
1 41459U 16025D   21259.50136241  .00004649  00000-0  22425-3 0  9999
2 41459  98.1541  41.2265 0159741 115.4371 246.3446 15.08633827296146
AAUSAT 4                
1 41460U 16025E   21259.40449801  .00007171  00000-0  32619-3 0  9998
2 41460  98.1540  45.4731 0145746  98.3456 263.4312 15.11983886296457
BEESAT-4                
1 41619U 16040W   21259.42388505  .00002990  00000-0  11884-3 0  9991
2 41619  97.2612 312.9491 0010816  19.4656 340.6993 15.26011222278885
CANX-7                  
1 41788U 16059F   21259.55648105  .00022477  00000-0  23710-2 0  9999
2 41788  98.2501   8.3332 0021844 250.3763 109.4888 14.89129689267414
RAVAN                   
1 41849U 16067B   21259.23937635  .00001610  00000-0  13717-3 0  9993
2 41849  97.9767  24.0906 0009686 145.1267 215.0592 14.99216633264896
CELTEE 1                
1 41850U 16067C   21259.29172561  .00001157  00000-0  10439-3 0  9994
2 41850  97.9656  20.3299 0009356 159.3143 200.8459 14.97547069264716
OPTICUBE 04             
1 41851U 16067D   21259.31660193 -.00000264  00000-0 -17532-4 0  9993
2 41851  97.9636  19.6767 0008929 165.2790 194.8692 14.97169368264684
AEROCUBE 8D             
1 41852U 16067E   21259.31498863 -.00000030  00000-0  26991-5 0  9997
2 41852  97.9635  19.5661 0009645 165.9324 194.2168 14.97317373264663
AEROCUBE 8C             
1 41853U 16067F   21259.29020439  .00001187  00000-0  10767-3 0  9990
2 41853  97.9633  19.3968 0010357 164.8573 195.2960 14.97286035264656
PROMETHEUS 2-1          
1 41854U 16067G   21259.33245641  .00000830  00000-0  75854-4 0  9993
2 41854  97.9630  20.1350 0010584 167.4994 192.6492 14.97821378264697
PROMETHEUS 2-3          
1 41855U 16067H   21259.32884560  .00000746  00000-0  68703-4 0  9993
2 41855  97.9634  20.1901 0010632 168.1615 191.9858 14.97839484264691
INS-1B                  
1 41954U 17008G   21259.12985623  .00002891  00000-0  11283-3 0  9992
2 41954  97.2997 320.2331 0010212 125.4622 234.7571 15.26665854254840
BGUSAT                  
1 41999U 17008BD  21259.43762188  .00005061  00000-0  17218-3 0  9990
2 41999  97.3178 327.8549 0008822 124.9048 235.3023 15.30844726254622
DIDO-2                  
1 42000U 17008BE  21259.40195497  .00001917  00000-0  78007-4 0  9994
2 42000  97.2995 320.6201 0009230 141.5088 218.6811 15.25675959254253
PEASSS                  
1 42015U 17008BV  21259.43444900  .00002594  00000-0  99612-4 0  9996
2 42015  97.3040 323.3769 0007206 138.0448 222.1344 15.27319549254907
AL-FARABI 1             
1 42016U 17008BW  21259.13921384  .00003412  00000-0  12498-3 0  9996
2 42016  97.3091 325.1018 0007029 136.6870 223.4924 15.28666926255080
NAYIF-1 (EO-88)         
1 42017U 17008BX  21259.43092355  .00003328  00000-0  12174-3 0  9994
2 42017  97.3085 325.3948 0007120 135.3429 224.8386 15.28726642255153
UCLSAT                  
1 42765U 17036A   21259.39710513  .00002657  00000-0  10826-3 0  9999
2 42765  97.2416 306.0565 0009844 207.4671 152.6049 15.25285095236035
LITUANICASAT-2          
1 42768U 17036D   21259.38338872  .00004219  00000-0  16135-3 0  9990
2 42768  97.2494 307.1515 0012995 196.2020 163.8806 15.27049612235348
AALTO-1                 
1 42775U 17036L   21259.36222178  .00001603  00000-0  71057-4 0  9996
2 42775  97.2389 302.3565 0012550 207.8474 152.2093 15.22947155235030
URSA MAIOR              
1 42776U 17036M   21259.34814681  .00001768  00000-0  77434-4 0  9998
2 42776  97.2406 302.8628 0012368 206.7990 153.2610 15.23239863235053
COMPASS 2               
1 42777U 17036N   21259.39768086  .00003495  00000-0  13731-3 0  9999
2 42777  97.2478 307.2138 0011011 196.8696 163.2178 15.26280646235287
DIAMOND RED             
1 42783U 17036U   21259.38387175  .00001981  00000-0  84011-4 0  9999
2 42783  97.2419 304.7449 0010558 212.9031 147.1551 15.24205782235163
PEGASUS                 
1 42784U 17036V   21259.40331364  .00002432  00000-0  10067-3 0  9993
2 42784  97.2423 305.5367 0010405 210.1745 149.8895 15.24826912235210
DIAMOND GREEN           
1 42785U 17036W   21259.38258222  .00002052  00000-0  86985-4 0  9993
2 42785  97.2423 304.7955 0010438 213.3657 146.6924 15.24192538235238
DIAMOND BLUE            
1 42786U 17036X   21259.38172962  .00002015  00000-0  85462-4 0  9998
2 42786  97.2423 304.7871 0010365 213.8128 146.2450 15.24185058235232
NUDTSAT                 
1 42787U 17036Y   21259.55028405  .00003992  00000-0  15331-3 0  9992
2 42787  97.2469 308.4012 0008850 204.3091 155.7753 15.26981946235234
SUCHAI                  
1 42788U 17036Z   21259.09054337  .00002820  00000-0  11333-3 0  9992
2 42788  97.2435 306.3467 0009935 207.4264 152.6451 15.25697058235306
SKCUBE                  
1 42789U 17036AA  21259.39880346  .00002670  00000-0  10841-3 0  9999
2 42789  97.2428 306.3117 0009892 206.8883 153.1844 15.25398087235259
VZLUSAT-1               
1 42790U 17036AB  21259.41499166  .00003746  00000-0  14413-3 0  9994
2 42790  97.2462 308.2573 0009431 200.3605 159.7259 15.26949527235362
ROBUSTA-1B              
1 42792U 17036AD  21259.09050382  .00002768  00000-0  11140-3 0  9990
2 42792  97.2431 306.4298 0009434 207.6735 152.4003 15.25660336235242
CICERO 6                
1 42793U 17036AE  21259.08996492  .00001778  00000-0  75304-4 0  9994
2 42793  97.2401 305.0506 0008816 212.6716 147.3978 15.24391685235246
D-SAT                   
1 42794U 17036AF  21259.45672284  .00000661  00000-0  62231-4 0  9991
2 42794  97.4601 274.5075 0123712 281.9650  76.7724 14.91680298230626
CORVUS BC2              
1 42846U 17042X   21259.42081606  .00000091  00000-0  14016-4 0  9990
2 42846  97.4588 126.7253 0009186 184.8240 175.2893 14.92356194227408
CORVUS BC1              
1 42847U 17042Y   21259.18440746  .00000460  00000-0  50001-4 0  9992
2 42847  97.4592 126.7568 0008864 184.5210 175.5931 14.92453906227370
MIRATA                  
1 43015U 17073C   21259.47624100  .00002817  00000-0  21725-3 0  9992
2 43015  97.6933 160.2578 0248895 359.5861   0.5108 14.81057648206684
MAKERSAT 0              
1 43016U 17073D   21259.49136975  .00002016  00000-0  15819-3 0  9991
2 43016  97.6965 160.2403 0252949   2.1061 358.1155 14.80214166206644
AEROCUBE 7B (OCSD B)    
1 43042U 17071F   21259.54747510  .00009606  00000-0  17466-3 0  9999
2 43042  51.6379 339.0747 0003216 300.1506  59.9164 15.50231467212953
AEROCUBE 7C (OCSD C)    
1 43043U 17071G   21259.52085695  .00009032  00000-0  16624-3 0  9995
2 43043  51.6367 339.6405 0003455 302.2165  57.8489 15.49966366212911
CHEFSAT                 
1 43044U 17071H   21259.38939104  .00041550  00000-0  39517-3 0  9990
2 43044  51.6330 295.6977 0004200   3.1520 356.9502 15.66406735213499
ASGARDIA 1              
1 43049U 17071N   21259.47265194  .00007951  00000-0  14878-3 0  9996
2 43049  51.6389 339.4664 0002005 334.0966  25.9922 15.49682199212915
ISARA                   
1 43050U 17071P   21259.41883696  .00027723  00000-0  32100-3 0  9992
2 43050  51.6311 305.3981 0003038  12.7024 347.4046 15.61610681213368
PROPCUBE 2 (FAUNA)      
1 43052U 17071R   21259.50766624  .00009508  00000-0  16956-3 0  9997
2 43052  51.6370 335.1917 0001956 336.8024  23.2876 15.50799149212962
CORVUS BC3              
1 43118U 18004H   21259.46286146  .00001712  00000-0  72430-4 0  9997
2 43118  97.3965 330.8790 0008450 245.3328 114.7030 15.24529587204440
MICROMAS-2A             
1 43131U 18004W   21259.49329432  .00003996  00000-0  14869-3 0  9998
2 43131  97.4058 334.8502 0006942 233.6063 126.4537 15.28061723204667
SPACEBEE-4              
1 43139U 18004AE  21259.17687101  .00006148  00000-0  21004-3 0  9992
2 43139  97.4128 337.3004 0006250 229.1843 130.8856 15.30645644204763
SPACEBEE-3              
1 43140U 18004AF  21259.16812353  .00008539  00000-0  27246-3 0  9992
2 43140  97.4162 339.0853 0005916 222.4828 137.5957 15.32734893204865
SPACEBEE-2              
1 43141U 18004AG  21259.46301470  .00008142  00000-0  25398-3 0  9995
2 43141  97.4183 340.0699 0005882 217.7487 142.3343 15.33473707204946
SPACEBEE-1              
1 43142U 18004AH  21259.45766757  .00009263  00000-0  28059-3 0  9990
2 43142  97.4195 340.7664 0005874 214.8918 145.1941 15.34367508204977
CICERO 7                
1 43143U 18004AJ  21259.44746584  .00003789  00000-0  14195-3 0  9999
2 43143  97.4030 334.7979 0005205 243.3184 116.7522 15.27876773204675
GOMX-4B                 
1 43196U 18015E   21259.34492070  .00000841  00000-0  36473-4 0  9996
2 43196  97.4973  32.4082 0016844 303.7344  56.2288 15.25098983201363
GOMX-4A                 
1 43197U 18015F   21259.58514066  .00002056  00000-0  83267-4 0  9996
2 43197  97.4963  32.9827 0017205 303.6541 116.2773 15.25727618201433
AEROCUBE 12A            
1 43556U 18046C   21259.46224994  .00003304  00000-0  11575-3 0  9993
2 43556  51.6404  70.6790 0008027 128.9710 231.1988 15.32377885177230
AEROCUBE 12B            
1 43557U 18046D   21259.20358864  .00002735  00000-0  99848-4 0  9997
2 43557  51.6407  74.1599 0008202 126.5818 233.5919 15.31699838177119
SURFSAT                 
1 43614U 18070B   21259.49105490  .00005604  00000-0  12625-3 0  9999
2 43614  93.0351 343.9685 0014224  21.0991 339.0849 15.43194355168702
CP7 (DAVE)              
1 43615U 18070C   21259.20233751  .00005560  00000-0  12665-3 0  9996
2 43615  93.0353 343.7917 0014522  22.2238 337.9645 15.42856301168648
ELFIN-B                 
1 43616U 18070D   21259.48991503  .00008994  00000-0  18139-3 0  9999
2 43616  93.0306 344.2252 0013648  17.4049 342.7674 15.46437566168838
ELFIN-A                 
1 43617U 18070E   21259.48386733  .00010011  00000-0  19805-3 0  9997
2 43617  93.0354 345.1595 0012896  14.7772 345.3861 15.47001542168850
